[{"OBJECT_NAME":"YUNHAI-1 01","OBJECT_ID":"2016-068A","EPOCH":"2026-03-09T23:53:51.242208","MEAN_MOTION":14.3266794,"ECCENTRICITY":0.00048409,"INCLINATION":98.5892,"RA_OF_ASC_NODE":80.9046,"ARG_OF_PERICENTER":339.8191,"MEAN_ANOMALY":20.2801,"EPHEMERIS_TYPE":0,"CLASSIFICATION_TYPE":"U","NORAD_CAT_ID":41857,"ELEMENT_SET_NO":999,"REV_AT_EPOCH":48762,"BSTAR":0.00014397496,"MEAN_MOTION_DOT":3.47e-6,"MEAN_MOTION_DDOT":0},{"OBJECT_NAME":"CZ-6A DEB","OBJECT_ID":"2024-140JL","EPOCH":"2026-03-09T15:07:42.544128","MEAN_MOTION":14.43919325,"ECCENTRICITY":0.0058934,"INCLINATION":88.9659,"RA_OF_ASC_NODE":281.2966,"ARG_OF_PERICENTER":254.8382,"MEAN_ANOMALY":104.6298,"EPHEMERIS_TYPE":0,"CLASSIFICATION_TYPE":"U","NORAD_CAT_ID":60857,"ELEMENT_SET_NO":999,"REV_AT_EPOCH":8237,"BSTAR":0.00027584,"MEAN_MOTION_DOT":9.76e-6,"MEAN_MOTION_DDOT":0}]
